{"type":"FeatureCollection","_meta":{"city":"Agadir","method":"Levenshtein matching DGI zones × OSM admin_level 9-10 + place suburb/quarter/neighbourhood","threshold":0.78,"stats":{"totalZones":45,"matched":5,"ratio":11},"generatedAt":"2026-05-25T17:57:11.436Z"},"features":[{"type":"Feature","geometry":{"type":"Point","coordinates":[-9.5694073,30.3886754]},"properties":{"code":"AG-BS1","ville":"Agadir","arrondissement":"Bensergao","prixDgi":[{"type":"Appartement","superficie":"ST < 500 m²","pt":7000,"pc":6000},{"type":"Appartement","superficie":"ST < 1000 m²","pt":5000},{"type":"Appartement","pt":4000}],"matchSource":"osm-quartiers","matchScore":1,"matchedOn":"Bensergao ⴱⵏⵙⵔⴽⴰⵡ بنسركاو","matchedQuery":"Bensergao"}},{"type":"Feature","geometry":{"type":"Point","coordinates":[-9.5694073,30.3886754]},"properties":{"code":"AG-BS3","ville":"Agadir","arrondissement":"Bensergao","prixDgi":[{"type":"Appartement","superficie":"ST < 1000 m²","pt":5000,"pc":5000},{"type":"Terrain                    ZI","superficie":"ST < 500 m²","pt":4000},{"type":"Terrain\r\n                                     ZM","prixUnique":6000},{"type":"Maison","prixUnique":8000}],"matchSource":"osm-quartiers","matchScore":1,"matchedOn":"Bensergao ⴱⵏⵙⵔⴽⴰⵡ بنسركاو","matchedQuery":"Bensergao"}},{"type":"Feature","geometry":{"type":"Point","coordinates":[-9.5694073,30.3886754]},"properties":{"code":"AG-BS4","ville":"Agadir","arrondissement":"Bensergao","prixDgi":[{"type":"Appartement","pt":8000,"pc":3000},{"type":"Appartement","pt":8000,"pc":2500},{"type":"Appartement","pt":8000,"pc":2000}],"matchSource":"osm-quartiers","matchScore":1,"matchedOn":"Bensergao ⴱⵏⵙⵔⴽⴰⵡ بنسركاو","matchedQuery":"Bensergao"}},{"type":"Feature","geometry":{"type":"Point","coordinates":[-9.5694073,30.3886754]},"properties":{"code":"AG-BS5","ville":"Agadir","arrondissement":"Bensergao","prixDgi":[{"type":"Appartement","pt":6000,"pc":3000},{"type":"Appartement","pt":6000,"pc":2500},{"type":"Appartement","pt":6000,"pc":2000},{"type":"Appartement","prixUnique":6000}],"matchSource":"osm-quartiers","matchScore":1,"matchedOn":"Bensergao ⴱⵏⵙⵔⴽⴰⵡ بنسركاو","matchedQuery":"Bensergao"}},{"type":"Feature","geometry":{"type":"Point","coordinates":[-9.5694073,30.3886754]},"properties":{"code":"AG-BS8","ville":"Agadir","arrondissement":"Bensergao","prixDgi":[{"type":"Villa","etat":"Ancien","prixUnique":6500},{"type":"Villa","etat":"Neuf","pt":3500,"pc":4000},{"type":"Villa","etat":"Neuf","pt":3500,"pc":3500},{"type":"Villa","etat":"Neuf","pt":3500,"pc":3000},{"type":"Villa","etat":"Neuf","pt":4000,"pc":4000},{"type":"Villa","etat":"Neuf","pt":4000,"pc":3500},{"type":"Villa","etat":"Neuf","pt":4000,"pc":3000},{"type":"Terrain         ZM","prixUnique":8000},{"type":"Maison","pt":8000,"pc":3000}],"matchSource":"osm-quartiers","matchScore":1,"matchedOn":"Bensergao ⴱⵏⵙⵔⴽⴰⵡ بنسركاو","matchedQuery":"Bensergao"}}]}