{"type":"FeatureCollection","_meta":{"city":"Fès","method":"Levenshtein matching DGI zones × OSM admin_level 9-10 + place suburb/quarter/neighbourhood","threshold":0.78,"stats":{"totalZones":13,"matched":8,"ratio":62},"generatedAt":"2026-05-25T17:57:11.380Z"},"features":[{"type":"Feature","geometry":{"type":"Point","coordinates":[-4.9997468,34.0379627]},"properties":{"code":"FS-AG1","ville":"Fès","arrondissement":"Agdal","prixDgi":[{"type":"Villa","prixUnique":1000},{"type":"Appartement","etat":"Ancien","prixUnique":5000},{"type":"Maison","prixUnique":6000}],"matchSource":"osm-quartiers","matchScore":1,"matchedOn":"Agdal ⴰⴳⴷⴰⵍ أكدال","matchedQuery":"Agdal"}},{"type":"Feature","geometry":{"type":"Point","coordinates":[-4.9997468,34.0379627]},"properties":{"code":"FS-AG2","ville":"Fès","arrondissement":"Agdal","prixDgi":[{"type":"Villa","prixUnique":2000},{"type":"Appartement","etat":"Ancien","prixUnique":5500}],"matchSource":"osm-quartiers","matchScore":1,"matchedOn":"Agdal ⴰⴳⴷⴰⵍ أكدال","matchedQuery":"Agdal"}},{"type":"Feature","geometry":{"type":"Point","coordinates":[-4.9997468,34.0379627]},"properties":{"code":"FS-AG3","ville":"Fès","arrondissement":"Agdal","prixDgi":[{"type":"Villa","prixUnique":10000},{"type":"Villa","prixUnique":1000},{"type":"Villa","prixUnique":1000},{"type":"Appartement","prixUnique":4000}],"matchSource":"osm-quartiers","matchScore":1,"matchedOn":"Agdal ⴰⴳⴷⴰⵍ أكدال","matchedQuery":"Agdal"}},{"type":"Feature","geometry":{"type":"Point","coordinates":[-4.9997468,34.0379627]},"properties":{"code":"FS-AG4","ville":"Fès","arrondissement":"Agdal","prixDgi":[{"type":"Villa","etat":"Ancien","prixUnique":1500},{"type":"Villa","prixUnique":4500},{"type":"Villa","prixUnique":4500},{"type":"Appartement","prixUnique":5500}],"matchSource":"osm-quartiers","matchScore":1,"matchedOn":"Agdal ⴰⴳⴷⴰⵍ أكدال","matchedQuery":"Agdal"}},{"type":"Feature","geometry":{"type":"Point","coordinates":[-4.9997468,34.0379627]},"properties":{"code":"FS-AG6","ville":"Fès","arrondissement":"Agdal","prixDgi":[{"type":"Villa","etat":"Ancien","prixUnique":9000},{"type":"Appartement","prixUnique":7000},{"type":"Maison","etat":"Ancien","prixUnique":9000}],"matchSource":"osm-quartiers","matchScore":1,"matchedOn":"Agdal ⴰⴳⴷⴰⵍ أكدال","matchedQuery":"Agdal"}},{"type":"Feature","geometry":{"type":"Point","coordinates":[-4.9997468,34.0379627]},"properties":{"code":"FS-AG7","ville":"Fès","arrondissement":"Agdal","prixDgi":[{"type":"Villa","prixUnique":2000},{"type":"Appartement","etat":"Ancien","prixUnique":4000},{"type":"Appartement","etat":"Ancien","prixUnique":8000},{"type":"Appartement","etat":"Ancien","prixUnique":6500},{"type":"Villa","prixUnique":5000},{"type":"Appartement","prixUnique":1500},{"type":"Maison","prixUnique":2000},{"type":"Appartement","etat":"Ancien","prixUnique":4000},{"type":"Villa","prixUnique":1000},{"type":"Appartement","prixUnique":4000},{"type":"Maison","prixUnique":6000},{"type":"Villa","prixUnique":1000},{"type":"Appartement","etat":"Ancien","prixUnique":5000},{"type":"Maison","etat":"Neuf","prixUnique":5500},{"type":"Villa","prixUnique":1000},{"type":"Appartement","prixUnique":5500},{"type":"Maison","prixUnique":11000},{"type":"Villa","prixUnique":1000},{"type":"Appartement","prixUnique":4500},{"type":"Villa","prixUnique":1000},{"type":"Appartement","etat":"Ancien","prixUnique":7000},{"type":"Villa","prixUnique":14000},{"type":"Villa","prixUnique":10000},{"type":"Appartement","etat":"Ancien","prixUnique":5500},{"type":"Villa","prixUnique":6500},{"type":"Villa","prixUnique":3000},{"type":"Villa","prixUnique":1000},{"type":"Appartement","prixUnique":3000},{"type":"Appartement","prixUnique":4000},{"type":"Villa","etat":"Ancien","prixUnique":6000},{"type":"Appartement","etat":"Ancien","prixUnique":5500},{"type":"Appartement","prixUnique":3000},{"type":"Appartement","etat":"Neuf","prixUnique":5500},{"type":"Villa","prixUnique":7000},{"type":"Appartement","prixUnique":4000},{"type":"Appartement","prixUnique":2500},{"type":"Appartement","etat":"Ancien","prixUnique":4000},{"type":"Appartement","prixUnique":3500},{"type":"Villa","prixUnique":4000},{"type":"Appartement","prixUnique":3000},{"type":"Maison","prixUnique":3500},{"type":"Appartement","prixUnique":11000},{"type":"Maison","prixUnique":2500},{"type":"Appartement","prixUnique":11000},{"type":"Maison","prixUnique":4000},{"type":"Maison","etat":"Ancien","prixUnique":3000}],"matchSource":"osm-quartiers","matchScore":1,"matchedOn":"Agdal ⴰⴳⴷⴰⵍ أكدال","matchedQuery":"Agdal"}},{"type":"Feature","geometry":{"type":"Point","coordinates":[-4.9573848,34.0575729]},"properties":{"code":"FS-JW1","ville":"Fès","arrondissement":"Jnan El Ouard","prixDgi":[{"type":"Appartement","etat":"Ancien","prixUnique":2000}],"matchSource":"osm-quartiers","matchScore":1,"matchedOn":"Jnan El Ouard ⵊⵏⴰⵏ ⵍⵡⴰⵔⴷ جنان الورد","matchedQuery":"Jnan El Ouard"}},{"type":"Feature","geometry":{"type":"Point","coordinates":[-4.9573848,34.0575729]},"properties":{"code":"FS-JW2","ville":"Fès","arrondissement":"Jnan El Ouard","prixDgi":[{"type":"Appartement","etat":"Ancien","prixUnique":2000}],"matchSource":"osm-quartiers","matchScore":1,"matchedOn":"Jnan El Ouard ⵊⵏⴰⵏ ⵍⵡⴰⵔⴷ جنان الورد","matchedQuery":"Jnan El Ouard"}}]}