{"type":"FeatureCollection","_meta":{"city":"Marrakech","method":"Levenshtein matching DGI zones × OSM admin_level 9-10 + place suburb/quarter/neighbourhood","threshold":0.78,"stats":{"totalZones":62,"matched":30,"ratio":48},"generatedAt":"2026-05-25T17:57:11.325Z"},"features":[{"type":"Feature","geometry":{"type":"Point","coordinates":[-7.9592152,31.6509445]},"properties":{"code":"MA-AN11","ville":"Marrakech","arrondissement":"Annakhil","prixDgi":[{"type":"Appartement","pt":4000,"pc":3000},{"type":"Appartement","etat":"Ancien","pt":4000,"pc":4000},{"type":"Maison","pt":4000,"pc":5000},{"type":"Maison","prixUnique":6500},{"type":"Terrain ZM","etat":"Loti","prixUnique":7000},{"type":"Villa","prixUnique":7500},{"type":"Villa","pt":5000,"pc":2000},{"type":"Terrain ZV","etat":"Loti","pt":5000,"pc":2500},{"type":"Maison","pt":5000,"pc":3000},{"type":"Appartement","superficie":"ST >= 400 m²","pt":3000,"pc":3000},{"type":"Appartement","superficie":"ST < 400 m²","pt":4500,"pc":3000},{"type":"Appartement","pt":4500,"pc":5000}],"matchSource":"osm-quartiers","matchScore":1,"matchedOn":"Annakhil ⵏⴰⵅⵉⵍ النخيل","matchedQuery":"Annakhil"}},{"type":"Feature","geometry":{"type":"Point","coordinates":[-7.9592152,31.6509445]},"properties":{"code":"MA-AN15","ville":"Marrakech","arrondissement":"Annakhil","prixDgi":[{"type":"Appartement","pt":3000,"pc":4000}],"matchSource":"osm-quartiers","matchScore":1,"matchedOn":"Annakhil ⵏⴰⵅⵉⵍ النخيل","matchedQuery":"Annakhil"}},{"type":"Feature","geometry":{"type":"Point","coordinates":[-7.9592152,31.6509445]},"properties":{"code":"MA-AN16","ville":"Marrakech","arrondissement":"Annakhil","prixDgi":[{"type":"Villa","pt":4000,"pc":4000},{"type":"Villa","etat":"Neuf","prixUnique":7000},{"type":"Villa","etat":"Ancien","prixUnique":7500},{"type":"Villa","pt":700,"pc":8000},{"type":"Villa","pt":700,"pc":10000},{"type":"Villa","pt":700,"pc":12000},{"type":"Villa","etat":"Neuf","prixUnique":1000},{"type":"Villa","etat":"Ancien","pt":3000,"pc":10000},{"type":"Appartement","prixUnique":1000},{"type":"Appartement","pt":4000,"pc":10000},{"type":"Appartement","pt":500,"pc":6000},{"type":"Appartement","pt":500,"pc":8000},{"type":"Appartement","pt":500,"pc":10000},{"type":"Appartement","pt":2500,"pc":6000},{"type":"Appartement","pt":2500,"pc":8000},{"type":"Appartement","pt":2500,"pc":10000},{"type":"Appartement","pt":800,"pc":8000},{"type":"Appartement","pt":800,"pc":10000},{"type":"Appartement","pt":800,"pc":1.2000130001500016e+21}],"matchSource":"osm-quartiers","matchScore":1,"matchedOn":"Annakhil ⵏⴰⵅⵉⵍ النخيل","matchedQuery":"Annakhil"}},{"type":"Feature","geometry":{"type":"Point","coordinates":[-7.9592152,31.6509445]},"properties":{"code":"MA-AN17","ville":"Marrakech","arrondissement":"Annakhil","prixDgi":[{"type":"Villa","pt":5000,"pc":8000},{"type":"Villa","pt":1000,"pc":8000}],"matchSource":"osm-quartiers","matchScore":1,"matchedOn":"Annakhil ⵏⴰⵅⵉⵍ النخيل","matchedQuery":"Annakhil"}},{"type":"Feature","geometry":{"type":"Point","coordinates":[-7.9592152,31.6509445]},"properties":{"code":"MA-AN19","ville":"Marrakech","arrondissement":"Annakhil","prixDgi":[{"type":"Villa","pt":1000,"pc":12000},{"type":"Appartement","etat":"Ancien","prixUnique":5000},{"type":"Appartement","prixUnique":6000},{"type":"Appartement","etat":"Neuf","prixUnique":7000},{"type":"Maison","etat":"Ancien","pt":5000,"pc":2000},{"type":"Maison","pt":5000,"pc":2500},{"type":"Maison","etat":"Neuf","pt":5000,"pc":3000},{"type":"Terrain ZM","prixUnique":5000},{"type":"Villa","etat":"Loti","pt":700,"pc":8000},{"type":"Villa","etat":"Ancien","pt":700,"pc":10000},{"type":"Villa","pt":700,"pc":12000}],"matchSource":"osm-quartiers","matchScore":1,"matchedOn":"Annakhil ⵏⴰⵅⵉⵍ النخيل","matchedQuery":"Annakhil"}},{"type":"Feature","geometry":{"type":"Point","coordinates":[-7.9592152,31.6509445]},"properties":{"code":"MA-AN2","ville":"Marrakech","arrondissement":"Annakhil","nomCommun":"5 000","delimitations":"Loti Si ST >= 1 000 m2 : Terrain ZV Ancien PT : 3 000/PC","avenues":[],"prixDgi":[{"type":"Terrain ZV","etat":"Ancien","pt":3000,"pc":5000}],"matchSource":"osm-quartiers","matchScore":1,"matchedOn":"Annakhil ⵏⴰⵅⵉⵍ النخيل","matchedQuery":"Annakhil"}},{"type":"Feature","geometry":{"type":"Point","coordinates":[-7.9592152,31.6509445]},"properties":{"code":"MA-AN3","ville":"Marrakech","arrondissement":"Annakhil","prixDgi":[{"type":"Villa","prixUnique":1000}],"matchSource":"osm-quartiers","matchScore":1,"matchedOn":"Annakhil ⵏⴰⵅⵉⵍ النخيل","matchedQuery":"Annakhil"}},{"type":"Feature","geometry":{"type":"Point","coordinates":[-7.9592152,31.6509445]},"properties":{"code":"MA-AN6","ville":"Marrakech","arrondissement":"Annakhil","prixDgi":[{"type":"Villa","prixUnique":4000},{"type":"Villa","pt":800,"pc":3000},{"type":"Villa","pt":800,"pc":4000},{"type":"Villa","etat":"Neuf","pt":800,"pc":5000},{"type":"Terrain ZV","etat":"Loti","pt":3000,"pc":6000},{"type":"Villa","prixUnique":1000},{"type":"Villa","pt":2500,"pc":6000},{"type":"Villa","prixUnique":1000},{"type":"Villa","etat":"Neuf","pt":3000,"pc":6000},{"type":"Maison","etat":"Neuf","pt":3000,"pc":7000},{"type":"Terrain ZM","superficie":"ST >= 1 000 m²","pt":2500,"pc":7000},{"type":"Terrain ZM","superficie":"ST < 1 000 m²","pt":3000,"pc":7000},{"type":"Terrain ZM","superficie":"ST >= 1 000 m²","pt":1500,"pc":4000},{"type":"Terrain ZM","superficie":"ST < 1 000 m²","pt":1500,"pc":4500120001500},{"type":"Terrain ZM","pt":4000,"pc":10000},{"type":"Terrain ZM","pt":4000,"pc":12000},{"type":"Terrain ZM","pt":350,"pc":1500},{"type":"Terrain ZM","pt":350,"pc":2000},{"type":"Terrain ZM","pt":2800,"pc":2500280039},{"type":"Terrain ZM","pt":2800},{"type":"Terrain ZM","pt":2800}],"matchSource":"osm-quartiers","matchScore":1,"matchedOn":"Annakhil ⵏⴰⵅⵉⵍ النخيل","matchedQuery":"Annakhil"}},{"type":"Feature","geometry":{"type":"Point","coordinates":[-7.9592152,31.6509445]},"properties":{"code":"MA-AN7","ville":"Marrakech","arrondissement":"Annakhil","prixDgi":[{"type":"Villa","pt":6000,"pc":2000}],"matchSource":"osm-quartiers","matchScore":1,"matchedOn":"Annakhil ⵏⴰⵅⵉⵍ النخيل","matchedQuery":"Annakhil"}},{"type":"Feature","geometry":{"type":"Point","coordinates":[-8.0575498,31.6285553]},"properties":{"code":"MA-ME10","ville":"Marrakech","arrondissement":"Ménara","prixDgi":[{"type":"Appartement","prixUnique":5000}],"matchSource":"osm-quartiers","matchScore":1,"matchedOn":"Menara ⵍⵎⵏⴰⵔⴰ المنارة","matchedQuery":"Ménara"}},{"type":"Feature","geometry":{"type":"Point","coordinates":[-8.0575498,31.6285553]},"properties":{"code":"MA-ME11","ville":"Marrakech","arrondissement":"Ménara","prixDgi":[{"type":"Appartement","etat":"Neuf","prixUnique":6000},{"type":"Maison","etat":"Neuf","prixUnique":6500},{"type":"Terrain ZI","etat":"Loti","pt":4500,"pc":1500},{"type":"Villa","pt":4500,"pc":2000},{"type":"Villa","etat":"Ancien","pt":4500,"pc":2500},{"type":"Villa","prixUnique":5500},{"type":"Villa","etat":"Neuf","prixUnique":4500},{"type":"Appartement","etat":"Ancien","pt":5000,"pc":5000},{"type":"Appartement","superficie":"ST >= 1 000 m²","pt":1500,"pc":3000},{"type":"Maison","etat":"Ancien","prixUnique":1000},{"type":"Maison","pt":2500,"pc":3000},{"type":"Terrain ZV","pt":3000,"pc":3000},{"type":"Terrain ZM","etat":"Loti","superficie":"ST < 300 m²","pt":3500,"pc":300029},{"type":"Terrain ZM","etat":"Loti","superficie":"ST >= 1 000 m²","pt":1500,"pc":4000},{"type":"Terrain ZM","etat":"Loti","superficie":"ST < 1 000 m²","pt":2500,"pc":4000},{"type":"Terrain ZM","etat":"Loti","superficie":"ST < 500 m²","pt":3000,"pc":4000},{"type":"Terrain ZM","etat":"Loti","superficie":"ST < 300 m²","pt":3500,"pc":4000},{"type":"Terrain ZM","etat":"Loti","superficie":"ST >= 1 000 m²","pt":1500,"pc":5000},{"type":"Terrain ZM","etat":"Loti","superficie":"ST < 1 000 m²","pt":2500,"pc":5000},{"type":"Terrain ZM","etat":"Loti","superficie":"ST < 500 m²","pt":3000,"pc":5000},{"type":"Terrain ZM","etat":"Loti","superficie":"ST < 300 m²","pt":3500,"pc":5000600070007500},{"type":"Terrain ZM","etat":"Loti","superficie":"ST >= 1 000 m²","pt":6000,"pc":1500},{"type":"Terrain ZM","etat":"Loti","superficie":"ST < 1 000 m²","pt":6000,"pc":2000},{"type":"Terrain ZM","etat":"Loti","superficie":"ST < 500 m²","pt":6000,"pc":2500}],"matchSource":"osm-quartiers","matchScore":1,"matchedOn":"Menara ⵍⵎⵏⴰⵔⴰ المنارة","matchedQuery":"Ménara"}},{"type":"Feature","geometry":{"type":"Point","coordinates":[-8.0575498,31.6285553]},"properties":{"code":"MA-ME13","ville":"Marrakech","arrondissement":"Ménara","prixDgi":[{"type":"Villa","prixUnique":1000},{"type":"Villa","superficie":"ST < 1 000 m²","pt":1500,"pc":3000},{"type":"Villa","pt":2500,"pc":3000},{"type":"Appartement","superficie":"ST < 500 m²","pt":3000,"pc":3000},{"type":"Appartement","etat":"Loti","superficie":"ST < 300 m²","pt":3500,"pc":3000},{"type":"Terrain ZV","etat":"Ancien","prixUnique":1000},{"type":"Terrain ZV","superficie":"ST < 1 000 m²","pt":1500,"pc":4000},{"type":"Villa","superficie":"ST < 500 m²","pt":2500,"pc":4000},{"type":"Villa","pt":3000,"pc":4000},{"type":"Villa","superficie":"ST < 300 m²","pt":3500,"pc":4000},{"type":"Villa","superficie":"ST >= 1 000 m²","pt":1500,"pc":5000},{"type":"Villa","superficie":"ST < 1 000 m²","pt":2500,"pc":5000},{"type":"Villa","superficie":"ST < 500 m²","pt":3000,"pc":5000},{"type":"Villa","superficie":"ST < 300 m²","pt":3500,"pc":50001000070008000},{"type":"Villa","superficie":"ST >= 1 000 m²","pt":1000,"pc":3000},{"type":"Villa","superficie":"ST < 1 000 m²","pt":1500,"pc":3000},{"type":"Villa","superficie":"ST < 500 m²","pt":2000,"pc":3000},{"type":"Villa","superficie":"ST < 300 m²","pt":1000,"pc":3500},{"type":"Villa","superficie":"ST > 750 m²","pt":1500,"pc":3500},{"type":"Villa","superficie":"ST <= 750 m²","pt":2000,"pc":3500},{"type":"Villa","superficie":"ST <= 400 m²","pt":1000,"pc":4000},{"type":"Villa","superficie":"ST > 750 m²","pt":1500,"pc":4000},{"type":"Villa","superficie":"ST <= 750 m²","pt":2000,"pc":400030}],"matchSource":"osm-quartiers","matchScore":1,"matchedOn":"Menara ⵍⵎⵏⴰⵔⴰ المنارة","matchedQuery":"Ménara"}},{"type":"Feature","geometry":{"type":"Point","coordinates":[-8.0575498,31.6285553]},"properties":{"code":"MA-ME17","ville":"Marrakech","arrondissement":"Ménara","prixDgi":[{"type":"Appartement","superficie":"ST < 300 m²","pt":3000,"pc":3000},{"type":"Villa","superficie":"ST >= 300 m²","pt":2500,"pc":4000},{"type":"Appartement","pt":3000,"pc":4000},{"type":"Terrain ZV","etat":"Loti","prixUnique":5500},{"type":"Appartement","etat":"Neuf","prixUnique":6000},{"type":"Appartement","etat":"Neuf","prixUnique":3000},{"type":"Terrain ZI","superficie":"ST < 300 m²","pt":2500,"pc":3000},{"type":"Terrain ZI","superficie":"ST >= 300 m²","pt":3000,"pc":3000},{"type":"Terrain ZI","superficie":"ST < 300 m²","pt":2500,"pc":4000},{"type":"Terrain ZI","superficie":"ST >= 300 m²","pt":3000,"pc":400055006000}],"matchSource":"osm-quartiers","matchScore":1,"matchedOn":"Menara ⵍⵎⵏⴰⵔⴰ المنارة","matchedQuery":"Ménara"}},{"type":"Feature","geometry":{"type":"Point","coordinates":[-8.0575498,31.6285553]},"properties":{"code":"MA-ME18","ville":"Marrakech","arrondissement":"Ménara","prixDgi":[{"type":"Villa","superficie":"ST >= 2 000 m²","pt":1500,"pc":4000},{"type":"Terrain ZV","etat":"Loti","superficie":"ST < 2 000 m²","pt":2000,"pc":4000},{"type":"Terrain ZV","etat":"Loti","superficie":"ST < 1 000 m²","pt":3000,"pc":4000},{"type":"Terrain ZV","etat":"Loti","superficie":"ST < 600 m²","pt":4000,"pc":4000},{"type":"Terrain ZV","etat":"Loti","superficie":"ST >= 2 000 m²","pt":1500,"pc":5000},{"type":"Terrain ZV","etat":"Loti","superficie":"ST < 2 000 m²","pt":2000,"pc":5000},{"type":"Terrain ZV","etat":"Loti","superficie":"ST < 1 000 m²","pt":3000,"pc":5000},{"type":"Terrain ZV","etat":"Loti","superficie":"ST < 600 m²","pt":4000,"pc":5000}],"matchSource":"osm-quartiers","matchScore":1,"matchedOn":"Menara ⵍⵎⵏⴰⵔⴰ المنارة","matchedQuery":"Ménara"}},{"type":"Feature","geometry":{"type":"Point","coordinates":[-8.0575498,31.6285553]},"properties":{"code":"MA-ME2","ville":"Marrakech","arrondissement":"Ménara","prixDgi":[{"type":"Villa","etat":"Neuf","pt":2300,"pc":2500},{"type":"Appartement","pt":2000,"pc":2500},{"type":"Maison","pt":1500,"pc":2500},{"type":"Terrain ZM","etat":"Loti","pt":1000,"pc":2500},{"type":"Maison","etat":"Neuf","pt":2300,"pc":3000},{"type":"Maison","pt":2000,"pc":3000},{"type":"Terrain ZM","superficie":"ST < 200 m²","pt":1500,"pc":3000},{"type":"Terrain ZM","superficie":"ST <= 300 m²","pt":1000,"pc":300050005500},{"type":"Terrain ZM","superficie":"ST <= 600 m²","pt":4000,"pc":2000},{"type":"Terrain ZM","superficie":"ST > 600 m²","pt":4000,"pc":2500},{"type":"Terrain ZM","superficie":"ST < 200 m²","pt":6000,"pc":2000},{"type":"Terrain ZM","superficie":"ST <= 300 m²","pt":3000,"pc":2000},{"type":"Terrain ZM","superficie":"ST <= 600 m²","pt":2000,"pc":2000},{"type":"Terrain ZM","superficie":"ST > 600 m²","pt":1500,"pc":2000},{"type":"Terrain ZM","pt":6000,"pc":3000},{"type":"Terrain ZM","pt":3000,"pc":3000},{"type":"Terrain ZM","pt":2000,"pc":3000},{"type":"Terrain ZM","pt":1500,"pc":3000}],"matchSource":"osm-quartiers","matchScore":1,"matchedOn":"Menara ⵍⵎⵏⴰⵔⴰ المنارة","matchedQuery":"Ménara"}},{"type":"Feature","geometry":{"type":"Point","coordinates":[-8.0575498,31.6285553]},"properties":{"code":"MA-ME3","ville":"Marrakech","arrondissement":"Ménara","prixDgi":[{"type":"Villa","pt":5000,"pc":5000},{"type":"Villa","prixUnique":2000},{"type":"Villa","superficie":"ST < 2 000 m²","pt":1500,"pc":3000},{"type":"Villa","etat":"Loti","pt":2000,"pc":3000},{"type":"Terrain ZV","superficie":"ST < 1 000 m²","pt":2500,"pc":3000},{"type":"Terrain ZV","superficie":"ST < 500 m²","pt":3000,"pc":3000},{"type":"Terrain ZV","superficie":"ST < 300 m²","pt":3500,"pc":3000},{"type":"Terrain ZV","superficie":"ST >= 2 000 m²","pt":1500,"pc":3500},{"type":"Terrain ZV","superficie":"ST < 2 000 m²","pt":2000,"pc":3500},{"type":"Terrain ZV","superficie":"ST < 1 000 m²","pt":2500,"pc":3500},{"type":"Terrain ZV","superficie":"ST < 500 m²","pt":3000,"pc":3500},{"type":"Terrain ZV","superficie":"ST < 300 m²","pt":3500,"pc":3500},{"type":"Terrain ZV","superficie":"ST >= 2 000 m²","pt":1500,"pc":4000},{"type":"Terrain ZV","superficie":"ST < 2 000 m²","pt":2000,"pc":4000},{"type":"Terrain ZV","superficie":"ST < 1 000 m²","pt":2500,"pc":4000},{"type":"Terrain ZV","superficie":"ST < 500 m²","pt":3000,"pc":4000},{"type":"Terrain ZV","superficie":"ST < 300 m²","pt":3500,"pc":4000}],"matchSource":"osm-quartiers","matchScore":1,"matchedOn":"Menara ⵍⵎⵏⴰⵔⴰ المنارة","matchedQuery":"Ménara"}},{"type":"Feature","geometry":{"type":"Point","coordinates":[-8.0575498,31.6285553]},"properties":{"code":"MA-ME4","ville":"Marrakech","arrondissement":"Ménara","prixDgi":[{"type":"Villa","etat":"Ancien","superficie":"ST >= 1 000 m²","pt":1500,"pc":3000},{"type":"Villa","superficie":"ST < 1 000 m²","pt":2500,"pc":3000},{"type":"Villa","etat":"Neuf","superficie":"ST < 500 m²","pt":3250,"pc":3000},{"type":"Appartement","superficie":"ST >= 1 000 m²","pt":4000,"pc":3000},{"type":"Maison","etat":"Ancien","pt":1500,"pc":4000},{"type":"Maison","prixUnique":1000},{"type":"Maison","etat":"Neuf","pt":2500,"pc":4000},{"type":"Terrain ZI","etat":"Loti","pt":3250,"pc":4000},{"type":"Terrain ZM","etat":"Loti","superficie":"ST < 300 m²","pt":4000,"pc":4000},{"type":"Terrain ZM","etat":"Loti","superficie":"ST >= 1 000 m²","pt":1500,"pc":5000},{"type":"Terrain ZM","etat":"Loti","superficie":"ST < 1 000 m²","pt":2500,"pc":5000},{"type":"Terrain ZM","etat":"Loti","superficie":"ST < 500 m²","pt":3250,"pc":5000},{"type":"Terrain ZM","etat":"Loti","superficie":"ST < 300 m²","pt":4000,"pc":5000500060007000},{"type":"Terrain ZM","etat":"Loti","superficie":"ST >= 1 000 m²","pt":5000,"pc":1500},{"type":"Terrain ZM","etat":"Loti","superficie":"ST < 1 000 m²","pt":5000,"pc":2000},{"type":"Terrain ZM","etat":"Loti","superficie":"ST < 500 m²","pt":5000,"pc":2500}],"matchSource":"osm-quartiers","matchScore":1,"matchedOn":"Menara ⵍⵎⵏⴰⵔⴰ المنارة","matchedQuery":"Ménara"}},{"type":"Feature","geometry":{"type":"Point","coordinates":[-8.0575498,31.6285553]},"properties":{"code":"MA-ME5","ville":"Marrakech","arrondissement":"Ménara","prixDgi":[{"type":"Villa","superficie":"ST < 400 m²","pt":2000,"pc":2000},{"type":"Villa","etat":"Neuf","pt":3000,"pc":2000},{"type":"Appartement","pt":4000,"pc":2000},{"type":"Maison","pt":5000,"pc":2000},{"type":"Terrain ZV","etat":"Loti","superficie":"ST < 400 m²","pt":2000,"pc":3000},{"type":"Terrain ZM","etat":"Loti","pt":3000,"pc":3000},{"type":"Terrain ZI","etat":"Loti","superficie":"ST < 300 m²","pt":4000,"pc":3000},{"type":"Terrain ZI","etat":"Loti","superficie":"ST < 200 m²","pt":5000,"pc":3000},{"type":"Terrain ZI","etat":"Loti","superficie":"ST >= 400 m²","pt":2000,"pc":4000},{"type":"Terrain ZI","etat":"Loti","superficie":"ST < 400 m²","pt":3000,"pc":4000},{"type":"Terrain ZI","etat":"Loti","superficie":"ST < 300 m²","pt":4000,"pc":4000},{"type":"Terrain ZI","etat":"Loti","superficie":"ST < 200 m²","pt":5000,"pc":4000550065007000},{"type":"Terrain ZI","etat":"Loti","superficie":"ST >= 400 m²","pt":4500,"pc":1500},{"type":"Terrain ZI","etat":"Loti","superficie":"ST < 400 m²","pt":4500,"pc":2000},{"type":"Terrain ZI","etat":"Loti","superficie":"ST < 300 m²","pt":4500,"pc":2500},{"type":"Terrain ZI","etat":"Loti","superficie":"ST < 200 m²","pt":2000},{"type":"Terrain ZI","etat":"Loti","pt":3000},{"type":"Terrain ZI","etat":"Loti","pt":4000},{"type":"Terrain ZI","etat":"Loti","pt":50004500500026}],"matchSource":"osm-quartiers","matchScore":1,"matchedOn":"Menara ⵍⵎⵏⴰⵔⴰ المنارة","matchedQuery":"Ménara"}},{"type":"Feature","geometry":{"type":"Point","coordinates":[-8.0575498,31.6285553]},"properties":{"code":"MA-ME6","ville":"Marrakech","arrondissement":"Ménara","prixDgi":[{"type":"Appartement","prixUnique":5000}],"matchSource":"osm-quartiers","matchScore":1,"matchedOn":"Menara ⵍⵎⵏⴰⵔⴰ المنارة","matchedQuery":"Ménara"}},{"type":"Feature","geometry":{"type":"Point","coordinates":[-8.0575498,31.6285553]},"properties":{"code":"MA-ME7","ville":"Marrakech","arrondissement":"Ménara","prixDgi":[{"type":"Appartement","etat":"Neuf","prixUnique":5500},{"type":"Maison","etat":"Neuf","prixUnique":6000},{"type":"Terrain ZI","etat":"Loti","pt":4500,"pc":1500},{"type":"Terrain ZM","etat":"Loti","pt":4500,"pc":2000},{"type":"Villa","etat":"Ancien","pt":4500,"pc":2500},{"type":"Villa","prixUnique":6000},{"type":"Villa","etat":"Neuf","prixUnique":4500},{"type":"Appartement","prixUnique":1000},{"type":"Appartement","superficie":"ST < 1 000 m²","pt":1500,"pc":3000},{"type":"Maison","etat":"Ancien","pt":2500,"pc":3000},{"type":"Maison","etat":"Neuf","pt":3000,"pc":3000},{"type":"Terrain ZM","etat":"Loti","superficie":"ST >= 1 000 m²","pt":3500,"pc":3000},{"type":"Terrain ZM","etat":"Loti","superficie":"ST < 1 000 m²","pt":1500,"pc":350027},{"type":"Terrain ZM","etat":"Loti","superficie":"ST < 500 m²","pt":2500,"pc":3500},{"type":"Terrain ZM","etat":"Loti","superficie":"ST < 300 m²","pt":3000,"pc":3500},{"type":"Terrain ZM","etat":"Loti","superficie":"ST >= 1 000 m²","pt":3500,"pc":3500},{"type":"Terrain ZM","etat":"Loti","superficie":"ST < 1 000 m²","pt":1500,"pc":4000},{"type":"Terrain ZM","etat":"Loti","superficie":"ST < 500 m²","pt":2500,"pc":4000},{"type":"Terrain ZM","etat":"Loti","superficie":"ST < 300 m²","pt":3000,"pc":4000},{"type":"Terrain ZM","etat":"Loti","superficie":"ST >= 1 000 m²","pt":3500,"pc":4000600070008000},{"type":"Terrain ZM","etat":"Loti","superficie":"ST < 1 000 m²","pt":5000,"pc":1500},{"type":"Terrain ZM","etat":"Loti","superficie":"ST < 500 m²","pt":5000,"pc":2000},{"type":"Terrain ZM","etat":"Loti","superficie":"ST < 300 m²","pt":5000,"pc":2500}],"matchSource":"osm-quartiers","matchScore":1,"matchedOn":"Menara ⵍⵎⵏⴰⵔⴰ المنارة","matchedQuery":"Ménara"}},{"type":"Feature","geometry":{"type":"Point","coordinates":[-8.0575498,31.6285553]},"properties":{"code":"MA-ME8","ville":"Marrakech","arrondissement":"Ménara","prixDgi":[{"type":"Villa","pt":2500,"pc":2000}],"matchSource":"osm-quartiers","matchScore":1,"matchedOn":"Menara ⵍⵎⵏⴰⵔⴰ المنارة","matchedQuery":"Ménara"}},{"type":"Feature","geometry":{"type":"Point","coordinates":[-8.0575498,31.6285553]},"properties":{"code":"MA-ME9","ville":"Marrakech","arrondissement":"Ménara","prixDgi":[{"type":"Appartement","etat":"Ancien","pt":2500,"pc":2500},{"type":"Appartement","etat":"Neuf","prixUnique":5500},{"type":"Maison","prixUnique":6000},{"type":"Maison","prixUnique":6500},{"type":"Maison","etat":"Neuf","pt":4000,"pc":1500},{"type":"Terrain ZI","etat":"Loti","pt":4000,"pc":2000},{"type":"Villa","pt":4000,"pc":2500},{"type":"Villa","prixUnique":2500},{"type":"Villa","prixUnique":5500},{"type":"Villa","etat":"Neuf","prixUnique":4000},{"type":"Appartement","pt":6000,"pc":5000},{"type":"Appartement","etat":"Neuf","pt":4000,"pc":4000},{"type":"Maison","etat":"Neuf","pt":5000,"pc":3500},{"type":"Terrain ZM","etat":"Loti","superficie":"ST < 200 m²","pt":4000,"pc":4500},{"type":"Terrain ZM","etat":"Loti","superficie":"ST >= 200 m²","pt":5000,"pc":4000},{"type":"Terrain ZM","etat":"Loti","superficie":"ST < 200 m²","pt":4000,"pc":5000},{"type":"Terrain ZM","etat":"Loti","superficie":"ST >= 200 m²","pt":5000,"pc":450018000500060000000},{"type":"Terrain ZM","etat":"Loti","superficie":"ST < 200 m²","pt":5000,"pc":1500},{"type":"Terrain ZM","etat":"Loti","pt":5000,"pc":2000},{"type":"Terrain ZM","etat":"Loti","pt":5000,"pc":2500}],"matchSource":"osm-quartiers","matchScore":1,"matchedOn":"Menara ⵍⵎⵏⴰⵔⴰ المنارة","matchedQuery":"Ménara"}},{"type":"Feature","geometry":{"type":"Point","coordinates":[-7.9679007,31.6090052]},"properties":{"code":"MA-SY1","ville":"Marrakech","arrondissement":"Sidi Youssef Ben Ali","delimitations":"Route du Golf, Avenue Tassoultante, Avenue Al Massira, Rue Al Khoukha","avenues":["Avenue Tassoultante","Avenue Al Massira","Rue Al Khoukha"],"prixDgi":[{"type":"Villa","etat":"Ancien","pt":5500,"pc":3000},{"type":"Villa","pt":5500,"pc":3500},{"type":"Villa","etat":"Neuf","pt":5500,"pc":4000},{"type":"Villa","etat":"Neuf","pt":6500,"pc":1500},{"type":"Maison","pt":6500,"pc":2000},{"type":"Maison","etat":"Neuf","pt":6500,"pc":2500},{"type":"Terrain ZV","etat":"Loti","prixUnique":5500},{"type":"Terrain ZM","etat":"Loti","pt":5000,"pc":3000},{"type":"Villa","pt":5000,"pc":3500},{"type":"Villa","etat":"Neuf","pt":5000,"pc":4000},{"type":"Appartement","prixUnique":6500}],"matchSource":"osm-quartiers","matchScore":1,"matchedOn":"Sidi Youssef Ben Ali ⵙⵉⴷⵉ ⵢⵓⵙⴼ ⴱⵏ ⵄⵍⵉ سيدي يوسف بن علي","matchedQuery":"Sidi Youssef Ben Ali"}},{"type":"Feature","geometry":{"type":"Point","coordinates":[-7.9679007,31.6090052]},"properties":{"code":"MA-SY2","ville":"Marrakech","arrondissement":"Sidi Youssef Ben Ali","prixDgi":[{"type":"Appartement","etat":"Neuf","prixUnique":7000},{"type":"Maison","etat":"Ancien","pt":6000,"pc":1500},{"type":"Maison","pt":6000,"pc":2000},{"type":"Maison","etat":"Neuf","pt":6000,"pc":2500},{"type":"Terrain ZV","etat":"Loti","prixUnique":5000}],"matchSource":"osm-quartiers","matchScore":1,"matchedOn":"Sidi Youssef Ben Ali ⵙⵉⴷⵉ ⵢⵓⵙⴼ ⴱⵏ ⵄⵍⵉ سيدي يوسف بن علي","matchedQuery":"Sidi Youssef Ben Ali"}},{"type":"Feature","geometry":{"type":"Point","coordinates":[-7.9679007,31.6090052]},"properties":{"code":"MA-SY3","ville":"Marrakech","arrondissement":"Sidi Youssef Ben Ali","delimitations":"Route du Golf, Oued Issil, Avenue Berrada, Avenue Ibn Al Haytham","avenues":["Avenue Berrada","Avenue Ibn Al Haytham"],"prixDgi":[],"matchSource":"osm-quartiers","matchScore":1,"matchedOn":"Sidi Youssef Ben Ali ⵙⵉⴷⵉ ⵢⵓⵙⴼ ⴱⵏ ⵄⵍⵉ سيدي يوسف بن علي","matchedQuery":"Sidi Youssef Ben Ali"}},{"type":"Feature","geometry":{"type":"Point","coordinates":[-7.9679007,31.6090052]},"properties":{"code":"MA-SY4","ville":"Marrakech","arrondissement":"Sidi Youssef Ben Ali","delimitations":"Avenue Berrada, Avenue Msala, Avenue Sakia","avenues":["Avenue Berrada","Avenue Msala","Avenue Sakia"],"prixDgi":[],"matchSource":"osm-quartiers","matchScore":1,"matchedOn":"Sidi Youssef Ben Ali ⵙⵉⴷⵉ ⵢⵓⵙⴼ ⴱⵏ ⵄⵍⵉ سيدي يوسف بن علي","matchedQuery":"Sidi Youssef Ben Ali"}},{"type":"Feature","geometry":{"type":"Point","coordinates":[-7.9679007,31.6090052]},"properties":{"code":"MA-SY5","ville":"Marrakech","arrondissement":"Sidi Youssef Ben Ali","delimitations":"Avenue Msala, Avenue Tassoultante, Ecole Youssef Ben Tachefine","avenues":["Avenue Msala","Avenue Tassoultante"],"prixDgi":[],"matchSource":"osm-quartiers","matchScore":1,"matchedOn":"Sidi Youssef Ben Ali ⵙⵉⴷⵉ ⵢⵓⵙⴼ ⴱⵏ ⵄⵍⵉ سيدي يوسف بن علي","matchedQuery":"Sidi Youssef Ben Ali"}},{"type":"Feature","geometry":{"type":"Point","coordinates":[-7.9679007,31.6090052]},"properties":{"code":"MA-SY6","ville":"Marrakech","arrondissement":"Sidi Youssef Ben Ali","prixDgi":[{"type":"Maison","pt":6500,"pc":2000},{"type":"Maison","etat":"Neuf","pt":6500,"pc":2500},{"type":"Terrain ZV","etat":"Loti","prixUnique":5500},{"type":"Terrain ZM","etat":"Loti","prixUnique":6500},{"type":"Maison","etat":"Ancien","pt":3500,"pc":1500},{"type":"Maison","pt":3500,"pc":2000},{"type":"Maison","etat":"Neuf","pt":3500,"pc":2500},{"type":"Terrain ZM","etat":"Loti","prixUnique":3500},{"type":"Maison","etat":"Ancien","pt":6500,"pc":1500},{"type":"Maison","pt":6500,"pc":2000},{"type":"Maison","etat":"Neuf","pt":6500,"pc":2500},{"type":"Terrain ZM","etat":"Loti","prixUnique":6500},{"type":"Appartement","etat":"Ancien","prixUnique":6000},{"type":"Appartement","prixUnique":6500},{"type":"Appartement","etat":"Neuf","prixUnique":7000},{"type":"Maison","etat":"Ancien","pt":4000,"pc":1500},{"type":"Maison","pt":4000,"pc":2000},{"type":"Maison","etat":"Neuf","pt":4000,"pc":2500},{"type":"Terrain ZM","etat":"Loti","prixUnique":4000}],"matchSource":"osm-quartiers","matchScore":1,"matchedOn":"Sidi Youssef Ben Ali ⵙⵉⴷⵉ ⵢⵓⵙⴼ ⴱⵏ ⵄⵍⵉ سيدي يوسف بن علي","matchedQuery":"Sidi Youssef Ben Ali"}},{"type":"Feature","geometry":{"type":"Point","coordinates":[-7.9679007,31.6090052]},"properties":{"code":"MA-SY7","ville":"Marrakech","arrondissement":"Sidi Youssef Ben Ali","delimitations":"Avenue El Oued, Avenue Msala, Avenue Madariss","avenues":["Avenue El Oued","Avenue Msala","Avenue Madariss"],"prixDgi":[],"matchSource":"osm-quartiers","matchScore":1,"matchedOn":"Sidi Youssef Ben Ali ⵙⵉⴷⵉ ⵢⵓⵙⴼ ⴱⵏ ⵄⵍⵉ سيدي يوسف بن علي","matchedQuery":"Sidi Youssef Ben Ali"}},{"type":"Feature","geometry":{"type":"Point","coordinates":[-7.9679007,31.6090052]},"properties":{"code":"MA-SY8","ville":"Marrakech","arrondissement":"Sidi Youssef Ben Ali","delimitations":"Avenue Msala, Avenue Madariss, Avenue Imam Ghazali 55","avenues":["Avenue Msala","Avenue Madariss"],"prixDgi":[{"type":"Maison","pt":3500,"pc":2000},{"type":"Maison","etat":"Neuf","pt":3500,"pc":2500},{"type":"Terrain ZM","etat":"Loti","prixUnique":3500},{"type":"Maison","etat":"Ancien","pt":4000,"pc":1500},{"type":"Maison","pt":4000,"pc":2000},{"type":"Maison","etat":"Neuf","pt":4000,"pc":2500},{"type":"Terrain ZM","etat":"Loti","prixUnique":4000}],"matchSource":"osm-quartiers","matchScore":1,"matchedOn":"Sidi Youssef Ben Ali ⵙⵉⴷⵉ ⵢⵓⵙⴼ ⴱⵏ ⵄⵍⵉ سيدي يوسف بن علي","matchedQuery":"Sidi Youssef Ben Ali"}}]}