{"type":"FeatureCollection","_meta":{"city":"Tétouan","method":"Levenshtein matching DGI zones × OSM admin_level 9-10 + place suburb/quarter/neighbourhood","threshold":0.78,"stats":{"totalZones":2,"matched":1,"ratio":50},"generatedAt":"2026-05-25T17:57:11.548Z"},"features":[{"type":"Feature","geometry":{"type":"Point","coordinates":[-5.7551633,35.7787383]},"properties":{"code":"TE-SM3","ville":"Tétouan","arrondissement":"Sania","prixDgi":[{"type":"Maison","pt":1000,"pc":500},{"type":"Maison","etat":"Neuf","pt":1000,"pc":1000},{"type":"Maison","pt":1000,"pc":1500},{"type":"Appartement","etat":"Ancien","prixUnique":1000},{"type":"Appartement","prixUnique":2000},{"type":"Appartement","etat":"Neuf","prixUnique":2500},{"type":"Maison","etat":"Ancien","prixUnique":3000},{"type":"Maison","pt":1800,"pc":1000},{"type":"Maison","etat":"Neuf","pt":1800,"pc":1500},{"type":"Terrain ZI","pt":1800,"pc":2000},{"type":"Appartement","etat":"Loti","prixUnique":1800},{"type":"Appartement","etat":"Ancien","prixUnique":2000},{"type":"Appartement","prixUnique":2500},{"type":"Maison","etat":"Neuf","prixUnique":3000},{"type":"Maison","etat":"Ancien","pt":2500,"pc":1500},{"type":"Maison","pt":2500,"pc":2000},{"type":"Maison","pt":2500,"pc":2500},{"type":"Villa","etat":"Ancien","pt":2000,"pc":1500},{"type":"Villa","pt":2000,"pc":2000},{"type":"Villa","etat":"Neuf","pt":2000,"pc":2500},{"type":"Terrain ZI","prixUnique":2500},{"type":"Terrain ZV","etat":"Loti","prixUnique":2000},{"type":"Appartement","etat":"Ancien","prixUnique":3000},{"type":"Appartement","prixUnique":4000},{"type":"Appartement","etat":"Neuf","prixUnique":5000},{"type":"Maison","pt":4500,"pc":1500},{"type":"Maison","etat":"Neuf","pt":4500,"pc":2000},{"type":"Maison","pt":4500,"pc":2500},{"type":"Appartement","etat":"Ancien","prixUnique":4500},{"type":"Appartement","prixUnique":3000},{"type":"Appartement","etat":"Neuf","prixUnique":4000},{"type":"Maison","etat":"Ancien","prixUnique":5000},{"type":"Maison","pt":5000,"pc":1000},{"type":"Maison","etat":"Neuf","pt":5000,"pc":2000},{"type":"Maison","etat":"Neuf","pt":5000,"pc":2500},{"type":"Terrain ZI","etat":"Loti","prixUnique":7000},{"type":"Appartement","etat":"Ancien","prixUnique":2500},{"type":"Appartement","prixUnique":4000},{"type":"Appartement","etat":"Neuf","pt":4000,"pc":1000},{"type":"Maison","pt":4000,"pc":2000},{"type":"Maison","etat":"Neuf","pt":4000,"pc":2500},{"type":"Maison","prixUnique":4000},{"type":"Appartement","etat":"Ancien","prixUnique":4000},{"type":"Appartement","prixUnique":5000},{"type":"Appartement","etat":"Neuf","prixUnique":6000},{"type":"Maison","pt":7000,"pc":1500},{"type":"Maison","etat":"Neuf","pt":7000,"pc":2000},{"type":"Maison","pt":7000,"pc":3000},{"type":"Appartement","etat":"Ancien","prixUnique":7000},{"type":"Appartement","prixUnique":4500},{"type":"Appartement","etat":"Neuf","prixUnique":6000},{"type":"Terrain ZI","prixUnique":7000},{"type":"Appartement","etat":"Ancien","prixUnique":2700},{"type":"Appartement","prixUnique":3500},{"type":"Appartement","etat":"Neuf","prixUnique":4500},{"type":"Maison","pt":3500,"pc":1000},{"type":"Maison","etat":"Neuf","pt":3500,"pc":1500},{"type":"Maison","pt":3500,"pc":2000},{"type":"Appartement","etat":"Ancien","prixUnique":3500},{"type":"Appartement","prixUnique":1500},{"type":"Appartement","etat":"Neuf","prixUnique":2500},{"type":"Maison","etat":"Ancien","prixUnique":3000},{"type":"Maison","pt":2000,"pc":1000},{"type":"Maison","etat":"Neuf","pt":2000,"pc":1500},{"type":"Terrain ZI","pt":2000,"pc":2000},{"type":"Appartement","etat":"Ancien","prixUnique":2500},{"type":"Appartement","prixUnique":3500},{"type":"Appartement","etat":"Neuf","prixUnique":4500},{"type":"Maison","pt":3000,"pc":1000},{"type":"Maison","pt":4000,"pc":1000},{"type":"Maison","pt":5500,"pc":1000},{"type":"Maison","etat":"Ancien","pt":3000,"pc":1500},{"type":"Villa","etat":"Neuf","pt":4000,"pc":1500},{"type":"Villa","pt":5500,"pc":1500},{"type":"Terrain ZI","pt":3000,"pc":2000},{"type":"Terrain ZV","etat":"Ancien","pt":4000,"pc":2000},{"type":"Appartement","pt":5500,"pc":2000},{"type":"Appartement","etat":"Ancien","pt":3000,"pc":1000},{"type":"Appartement","etat":"Ancien","pt":3000,"pc":1500},{"type":"Maison","etat":"Neuf","pt":3000,"pc":2000},{"type":"Maison","etat":"Loti","prixUnique":3000},{"type":"Terrain ZI","pt":6000,"pc":1500},{"type":"Terrain ZI","pt":6000,"pc":2000},{"type":"Terrain ZI","pt":6000,"pc":2500},{"type":"Appartement","etat":"Ancien","prixUnique":5500},{"type":"Appartement","prixUnique":7000},{"type":"Appartement","etat":"Neuf","prixUnique":8000},{"type":"Maison","pt":8000,"pc":1500},{"type":"Maison","etat":"Neuf","pt":8000,"pc":2000},{"type":"Maison","etat":"Ancien","pt":8000,"pc":2500},{"type":"Maison","etat":"Ancien","pt":6000,"pc":2000},{"type":"Villa","etat":"Neuf","pt":6000,"pc":2500},{"type":"Villa","pt":6000,"pc":3000},{"type":"Terrain ZI","etat":"Loti","prixUnique":8000},{"type":"Terrain ZV","etat":"Ancien","prixUnique":6000},{"type":"Appartement","prixUnique":4000},{"type":"Appartement","etat":"Neuf","prixUnique":5000},{"type":"Appartement","etat":"Ancien","prixUnique":6000},{"type":"Maison","pt":5000,"pc":2000},{"type":"Maison","etat":"Neuf","pt":5000,"pc":2500},{"type":"Maison","etat":"Ancien","pt":5000,"pc":3000},{"type":"Villa","pt":4000,"pc":2000},{"type":"Villa","etat":"Neuf","pt":4000,"pc":2500},{"type":"Villa","etat":"Loti","pt":4000,"pc":3000},{"type":"Terrain ZI","etat":"Loti","prixUnique":5000},{"type":"Terrain ZV","prixUnique":4000},{"type":"Appartement","etat":"Ancien","prixUnique":5000},{"type":"Appartement","prixUnique":6000},{"type":"Appartement","etat":"Neuf","prixUnique":7000},{"type":"Maison","pt":6000,"pc":2000},{"type":"Maison","etat":"Neuf","pt":6000,"pc":2500},{"type":"Maison","etat":"Ancien","pt":6000,"pc":3000},{"type":"Maison","etat":"Ancien","pt":5000,"pc":2500},{"type":"Villa","etat":"Neuf","pt":5000,"pc":3000},{"type":"Villa","pt":5000,"pc":3500},{"type":"Terrain ZI","etat":"Loti","prixUnique":6000},{"type":"Terrain ZV","etat":"Ancien","prixUnique":5000},{"type":"Appartement","prixUnique":4000},{"type":"Appartement","etat":"Neuf","prixUnique":5500},{"type":"Appartement","etat":"Ancien","prixUnique":6000},{"type":"Maison","pt":7000,"pc":2000},{"type":"Maison","etat":"Neuf","pt":7000,"pc":2500},{"type":"Maison","etat":"Ancien","pt":7000,"pc":3000},{"type":"Villa","pt":6000,"pc":2500},{"type":"Villa","etat":"Neuf","pt":6000,"pc":3000},{"type":"Villa","etat":"Loti","pt":6000,"pc":3500},{"type":"Terrain ZI","etat":"Loti","prixUnique":7000},{"type":"Terrain ZV","prixUnique":6000},{"type":"Appartement","etat":"Ancien","prixUnique":5000},{"type":"Appartement","prixUnique":6000},{"type":"Appartement","etat":"Neuf","prixUnique":7000},{"type":"Maison","pt":8000,"pc":1500},{"type":"Maison","etat":"Neuf","pt":8000,"pc":2500},{"type":"Maison","etat":"Ancien","pt":8000,"pc":3000},{"type":"Maison","etat":"Ancien","pt":6000,"pc":1500},{"type":"Villa","etat":"Neuf","pt":6000,"pc":3000},{"type":"Villa","pt":6000,"pc":3500},{"type":"Terrain ZI","etat":"Loti","prixUnique":8000},{"type":"Terrain ZV","etat":"Ancien","prixUnique":6000},{"type":"Appartement","prixUnique":4500},{"type":"Appartement","etat":"Neuf","prixUnique":6000},{"type":"Appartement","etat":"Ancien","prixUnique":7000},{"type":"Maison","pt":9000,"pc":2000},{"type":"Maison","etat":"Neuf","pt":9000,"pc":2500},{"type":"Maison","etat":"Ancien","pt":9000,"pc":3000},{"type":"Villa","pt":7000,"pc":2500},{"type":"Villa","etat":"Neuf","pt":7000,"pc":3000},{"type":"Villa","etat":"Loti","pt":7000,"pc":3500},{"type":"Terrain ZI","etat":"Loti","prixUnique":9000},{"type":"Terrain ZV","prixUnique":7000},{"type":"Appartement","etat":"Ancien","prixUnique":4000},{"type":"Appartement","prixUnique":5500},{"type":"Appartement","etat":"Neuf","prixUnique":6500},{"type":"Maison","pt":7500,"pc":2000},{"type":"Maison","etat":"Neuf","pt":7500,"pc":2500},{"type":"Maison","etat":"Ancien","pt":7500,"pc":3000},{"type":"Maison","etat":"Ancien","pt":6000,"pc":2000},{"type":"Villa","etat":"Neuf","pt":6000,"pc":2500},{"type":"Villa","pt":6000,"pc":3000},{"type":"Terrain ZI","etat":"Loti","prixUnique":7500},{"type":"Terrain ZV","etat":"Ancien","prixUnique":6000},{"type":"Appartement","prixUnique":3000},{"type":"Appartement","etat":"Neuf","prixUnique":5000},{"type":"Appartement","etat":"Ancien","prixUnique":6000},{"type":"Maison","pt":5000,"pc":1500},{"type":"Maison","etat":"Neuf","pt":5000,"pc":2000},{"type":"Maison","etat":"Loti","pt":5000,"pc":2500},{"type":"Terrain ZI","prixUnique":5000},{"type":"Appartement","etat":"Ancien","prixUnique":4000},{"type":"Appartement","prixUnique":5000},{"type":"Appartement","etat":"Neuf","prixUnique":6000},{"type":"Maison","pt":7000,"pc":1500},{"type":"Maison","etat":"Neuf","pt":7000,"pc":2000},{"type":"Maison","etat":"Ancien","pt":7000,"pc":2500},{"type":"Maison","etat":"Ancien","pt":5500,"pc":2000},{"type":"Villa","etat":"Neuf","pt":5500,"pc":2500},{"type":"Villa","pt":5500,"pc":3000},{"type":"Terrain ZI","etat":"Loti","prixUnique":7000},{"type":"Terrain ZV","etat":"Ancien","prixUnique":5500},{"type":"Appartement","prixUnique":4000},{"type":"Appartement","etat":"Neuf","prixUnique":5000},{"type":"Appartement","etat":"Ancien","prixUnique":6000},{"type":"Maison","pt":7500,"pc":1500},{"type":"Maison","etat":"Neuf","pt":7500,"pc":2000},{"type":"Maison","etat":"Loti","pt":7500,"pc":2500},{"type":"Terrain ZI","prixUnique":7500}],"matchSource":"osm-quartiers","matchScore":1,"matchedOn":"Sania سانية","matchedQuery":"Sania"}}]}