{
  "type": "FeatureCollection",
  "_meta": {
    "source": "PoC vectorisation PDF DGI Rabat page 32 (section 7.1 Cartographie Souissi)",
    "pipeline": "mupdf-js → pngjs HSV segmentation → Moore-Neighbor tracing → Douglas-Peucker → affine bbox",
    "georeferencing": "APPROXIMATIF (bbox Souissi connue, précision ~200m). Pour <30m, raffiner via 4 GCPs OSM précis.",
    "sourceBboxPx": {
      "minX": 80,
      "minY": 100,
      "maxX": 1110,
      "maxY": 1620
    },
    "targetBboxWgs84": {
      "minLat": 33.926,
      "maxLat": 33.984,
      "minLng": -6.86,
      "maxLng": -6.795
    },
    "extractedZones": 5,
    "generatedAt": "2026-05-25T18:48:27.695Z"
  },
  "features": [
    {
      "type": "Feature",
      "geometry": {
        "type": "Polygon",
        "coordinates": [
          [
            [
              -6.83545145631068,
              33.973201315789474
            ],
            [
              -6.834820388349515,
              33.97308684210527
            ],
            [
              -6.834757281553398,
              33.97278157894737
            ],
            [
              -6.834567961165049,
              33.97308684210527
            ],
            [
              -6.833495145631068,
              33.97308684210527
            ],
            [
              -6.83381067961165,
              33.97293421052632
            ],
            [
              -6.832674757281554,
              33.97278157894737
            ],
            [
              -6.831854368932039,
              33.97278157894737
            ],
            [
              -6.8315388349514565,
              33.97308684210527
            ],
            [
              -6.830592233009709,
              33.972972368421054
            ],
            [
              -6.830592233009709,
              33.97075921052632
            ],
            [
              -6.830276699029127,
              33.96961447368421
            ],
            [
              -6.829961165048544,
              33.96969078947369
            ],
            [
              -6.830150485436893,
              33.969500000000004
            ],
            [
              -6.8293932038834955,
              33.966790789473684
            ],
            [
              -6.829834951456311,
              33.96652368421053
            ],
            [
              -6.829582524271845,
              33.96648552631579
            ],
            [
              -6.8293932038834955,
              33.965722368421055
            ],
            [
              -6.829961165048544,
              33.96530263157895
            ],
            [
              -6.831223300970874,
              33.96530263157895
            ],
            [
              -6.830970873786408,
              33.965493421052635
            ],
            [
              -6.831097087378641,
              33.966180263157895
            ],
            [
              -6.830781553398058,
              33.96629473684211
            ],
            [
              -6.831097087378641,
              33.966332894736844
            ],
            [
              -6.831223300970874,
              33.96709605263158
            ],
            [
              -6.8315388349514565,
              33.96713421052632
            ],
            [
              -6.831665048543689,
              33.96694342105263
            ],
            [
              -6.831665048543689,
              33.968278947368425
            ],
            [
              -6.832043689320389,
              33.96694342105263
            ],
            [
              -6.83147572815534,
              33.96530263157895
            ],
            [
              -6.833747572815534,
              33.96507368421053
            ],
            [
              -6.83381067961165,
              33.96476842105263
            ],
            [
              -6.833495145631068,
              33.96457763157895
            ],
            [
              -6.834315533980583,
              33.96434868421053
            ],
            [
              -6.834567961165049,
              33.964653947368426
            ],
            [
              -6.8346310679611655,
              33.96404342105264
            ],
            [
              -6.835514563106797,
              33.96446315789474
            ],
            [
              -6.8362087378640775,
              33.96434868421053
            ],
            [
              -6.836334951456311,
              33.96461578947368
            ],
            [
              -6.836019417475728,
              33.9647302631579
            ],
            [
              -6.836334951456311,
              33.96476842105263
            ],
            [
              -6.836461165048544,
              33.96507368421053
            ],
            [
              -6.83671359223301,
              33.96434868421053
            ],
            [
              -6.837092233009709,
              33.96446315789474
            ],
            [
              -6.837218446601942,
              33.96427236842106
            ],
            [
              -6.837218446601942,
              33.96453947368421
            ],
            [
              -6.837597087378641,
              33.96453947368421
            ],
            [
              -6.8377233009708736,
              33.96385263157895
            ],
            [
              -6.8374077669902915,
              33.963547368421054
            ],
            [
              -6.8377233009708736,
              33.96350921052632
            ],
            [
              -6.8377233009708736,
              33.963318421052634
            ],
            [
              -6.837092233009709,
              33.96266973684211
            ],
            [
              -6.836902912621359,
              33.962975
            ],
            [
              -6.836334951456311,
              33.962784210526316
            ],
            [
              -6.834378640776699,
              33.962975
            ],
            [
              -6.83381067961165,
              33.962555263157896
            ],
            [
              -6.833305825242719,
              33.962975
            ],
            [
              -6.832611650485437,
              33.962975
            ],
            [
              -6.832296116504854,
              33.962784210526316
            ],
            [
              -6.831601941747573,
              33.963394736842105
            ],
            [
              -6.831033980582524,
              33.96266973684211
            ],
            [
              -6.831160194174758,
              33.96221184210526
            ],
            [
              -6.830844660194175,
              33.962173684210526
            ],
            [
              -6.830781553398058,
              33.961944736842106
            ],
            [
              -6.830402912621359,
              33.961944736842106
            ],
            [
              -6.830402912621359,
              33.96179210526316
            ],
            [
              -6.830655339805825,
              33.96190657894737
            ],
            [
              -6.831033980582524,
              33.96175394736842
            ],
            [
              -6.831160194174758,
              33.96137236842105
            ],
            [
              -6.830718446601942,
              33.96133421052632
            ],
            [
              -6.830276699029127,
              33.961639473684215
            ],
            [
              -6.830276699029127,
              33.96137236842105
            ],
            [
              -6.829961165048544,
              33.96133421052632
            ],
            [
              -6.829645631067962,
              33.961868421052635
            ],
            [
              -6.829582524271845,
              33.961486842105266
            ],
            [
              -6.830402912621359,
              33.96118157894737
            ],
            [
              -6.831097087378641,
              33.961257894736846
            ],
            [
              -6.83147572815534,
              33.96095263157895
            ],
            [
              -6.831791262135923,
              33.96106710526316
            ],
            [
              -6.8321699029126215,
              33.96091447368421
            ],
            [
              -6.832296116504854,
              33.96053289473684
            ],
            [
              -6.833873786407767,
              33.96064736842106
            ],
            [
              -6.83418932038835,
              33.96022763157895
            ],
            [
              -6.835640776699029,
              33.96022763157895
            ],
            [
              -6.836082524271845,
              33.959922368421054
            ],
            [
              -6.836334951456311,
              33.959922368421054
            ],
            [
              -6.83652427184466,
              33.96022763157895
            ],
            [
              -6.837218446601942,
              33.96034210526316
            ],
            [
              -6.8377233009708736,
              33.960151315789474
            ],
            [
              -6.837533980582524,
              33.95988421052632
            ],
            [
              -6.836966019417476,
              33.95988421052632
            ],
            [
              -6.836966019417476,
              33.95961710526316
            ],
            [
              -6.837533980582524,
              33.95961710526316
            ],
            [
              -6.8392378640776705,
              33.959922368421054
            ],
            [
              -6.839300970873786,
              33.96022763157895
            ],
            [
              -6.840121359223301,
              33.960151315789474
            ],
            [
              -6.840436893203884,
              33.96091447368421
            ],
            [
              -6.839995145631068,
              33.961525
            ],
            [
              -6.8401844660194175,
              33.96167763157895
            ],
            [
              -6.840878640776699,
              33.96156315789474
            ],
            [
              -6.841004854368932,
              33.962173684210526
            ],
            [
              -6.841572815533981,
              33.96221184210526
            ],
            [
              -6.841194174757282,
              33.962250000000004
            ],
            [
              -6.840563106796116,
              33.96289868421053
            ],
            [
              -6.839553398058253,
              33.96343289473685
            ],
            [
              -6.83942718446602,
              33.96381447368421
            ],
            [
              -6.83778640776699,
              33.96381447368421
            ],
            [
              -6.838101941747573,
              33.96385263157895
            ],
            [
              -6.838417475728155,
              33.96427236842106
            ],
            [
              -6.8392378640776705,
              33.96404342105264
            ],
            [
              -6.8392378640776705,
              33.96431052631579
            ],
            [
              -6.84068932038835,
              33.9654552631579
            ],
            [
              -6.841131067961165,
              33.965493421052635
            ],
            [
              -6.8414466019417475,
              33.96648552631579
            ],
            [
              -6.84176213592233,
              33.966027631578946
            ],
            [
              -6.84302427184466,
              33.967325
            ],
            [
              -6.842771844660194,
              33.96736315789474
            ],
            [
              -6.842898058252428,
              33.96751578947369
            ],
            [
              -6.842393203883495,
              33.96740131578947
            ],
            [
              -6.842330097087379,
              33.96721052631579
            ],
            [
              -6.841509708737864,
              33.96740131578947
            ],
            [
              -6.841067961165049,
              33.967325
            ],
            [
              -6.840941747572816,
              33.96709605263158
            ],
            [
              -6.84068932038835,
              33.967325
            ],
            [
              -6.839300970873786,
              33.96721052631579
            ],
            [
              -6.839111650485437,
              33.96751578947369
            ],
            [
              -6.838796116504855,
              33.96743947368421
            ],
            [
              -6.838733009708738,
              33.96846973684211
            ],
            [
              -6.84068932038835,
              33.968584210526316
            ],
            [
              -6.841067961165049,
              33.968278947368425
            ],
            [
              -6.841320388349515,
              33.96839342105263
            ],
            [
              -6.842140776699029,
              33.96797368421053
            ],
            [
              -6.842456310679612,
              33.96816447368421
            ],
            [
              -6.842456310679612,
              33.968660526315794
            ],
            [
              -6.841888349514563,
              33.9690802631579
            ],
            [
              -6.84068932038835,
              33.96930921052632
            ],
            [
              -6.8398689320388355,
              33.970415789473684
            ],
            [
              -6.839300970873786,
              33.9705302631579
            ],
            [
              -6.8392378640776705,
              33.97083552631579
            ],
            [
              -6.83904854368932,
              33.97072105263158
            ],
            [
              -6.838543689320389,
              33.97114078947369
            ],
            [
              -6.838291262135923,
              33.97114078947369
            ],
            [
              -6.838291262135923,
              33.970225
            ],
            [
              -6.83797572815534,
              33.96999605263158
            ],
            [
              -6.83671359223301,
              33.96988157894737
            ],
            [
              -6.836082524271845,
              33.96999605263158
            ],
            [
              -6.835514563106797,
              33.970415789473684
            ],
            [
              -6.835072815533981,
              33.97011052631579
            ],
            [
              -6.8352621359223305,
              33.96991973684211
            ],
            [
              -6.8346310679611655,
              33.969805263157895
            ],
            [
              -6.833936893203884,
              33.96988157894737
            ],
            [
              -6.8340000000000005,
              33.97011052631579
            ],
            [
              -6.8333689320388356,
              33.96999605263158
            ],
            [
              -6.832674757281554,
              33.970225
            ],
            [
              -6.832864077669903,
              33.970415789473684
            ],
            [
              -6.83254854368932,
              33.97072105263158
            ],
            [
              -6.833495145631068,
              33.97117894736842
            ],
            [
              -6.835009708737864,
              33.97117894736842
            ],
            [
              -6.835703883495146,
              33.970644736842104
            ],
            [
              -6.836082524271845,
              33.97095
            ],
            [
              -6.837218446601942,
              33.97087368421053
            ],
            [
              -6.837660194174758,
              33.97117894736842
            ],
            [
              -6.837660194174758,
              33.971751315789476
            ],
            [
              -6.8367766990291265,
              33.971980263157896
            ],
            [
              -6.836461165048544,
              33.972285526315794
            ],
            [
              -6.836650485436893,
              33.972590789473685
            ],
            [
              -6.836082524271845,
              33.97266710526316
            ],
            [
              -6.83545145631068,
              33.973201315789474
            ],
            [
              -6.83545145631068,
              33.973201315789474
            ]
          ]
        ]
      },
      "properties": {
        "zoneId": "souissi-zone-1",
        "hueRange": "210-220°/220-230°/200-210°/190-200°",
        "pixelCount": 38637,
        "bboxPx": {
          "minX": 349,
          "minY": 383,
          "maxX": 565,
          "maxY": 739,
          "w": 217,
          "h": 357
        },
        "centroidPx": [
          467.8699692005073,
          557.4331340424981
        ],
        "contourVertices": 168,
        "_note": "PoC géoréférencement approximatif depuis bbox Souissi — précision ~200m, à raffiner via GCPs précis"
      }
    },
    {
      "type": "Feature",
      "geometry": {
        "type": "Polygon",
        "coordinates": [
          [
            [
              -6.830781553398058,
              33.96083815789474
            ],
            [
              -6.829961165048544,
              33.96083815789474
            ],
            [
              -6.8297087378640775,
              33.95889210526316
            ],
            [
              -6.8293932038834955,
              33.95866315789474
            ],
            [
              -6.82895145631068,
              33.956526315789475
            ],
            [
              -6.828067961165049,
              33.954618421052636
            ],
            [
              -6.827941747572815,
              33.95355
            ],
            [
              -6.827626213592233,
              33.953282894736844
            ],
            [
              -6.827626213592233,
              33.95271052631579
            ],
            [
              -6.827941747572815,
              33.95248157894737
            ],
            [
              -6.828067961165049,
              33.94977236842105
            ],
            [
              -6.828067961165049,
              33.94839868421053
            ],
            [
              -6.827626213592233,
              33.94775
            ],
            [
              -6.828067961165049,
              33.94767368421053
            ],
            [
              -6.827941747572815,
              33.94713947368421
            ],
            [
              -6.827247572815534,
              33.94668157894737
            ],
            [
              -6.827058252427185,
              33.94568947368421
            ],
            [
              -6.826616504854369,
              33.945575000000005
            ],
            [
              -6.826490291262136,
              33.94416315789474
            ],
            [
              -6.827058252427185,
              33.942407894736846
            ],
            [
              -6.827941747572815,
              33.94195
            ],
            [
              -6.827941747572815,
              33.94145394736842
            ],
            [
              -6.828320388349515,
              33.94145394736842
            ],
            [
              -6.829140776699029,
              33.94076710526316
            ],
            [
              -6.829582524271845,
              33.94072894736842
            ],
            [
              -6.8297087378640775,
              33.94034736842105
            ],
            [
              -6.829645631067962,
              33.94072894736842
            ],
            [
              -6.829898058252427,
              33.94076710526316
            ],
            [
              -6.829961165048544,
              33.940232894736845
            ],
            [
              -6.830402912621359,
              33.93981315789474
            ],
            [
              -6.83128640776699,
              33.93920263157895
            ],
            [
              -6.831665048543689,
              33.93920263157895
            ],
            [
              -6.832233009708738,
              33.93950789473684
            ],
            [
              -6.832233009708738,
              33.939775000000004
            ],
            [
              -6.833558252427185,
              33.94034736842105
            ],
            [
              -6.833747572815534,
              33.94072894736842
            ],
            [
              -6.834567961165049,
              33.94095789473685
            ],
            [
              -6.834315533980583,
              33.94133947368421
            ],
            [
              -6.834567961165049,
              33.94145394736842
            ],
            [
              -6.8346310679611655,
              33.941148684210525
            ],
            [
              -6.834883495145632,
              33.941148684210525
            ],
            [
              -6.835640776699029,
              33.94156842105264
            ],
            [
              -6.835893203883495,
              33.94206447368421
            ],
            [
              -6.836334951456311,
              33.942178947368426
            ],
            [
              -6.836461165048544,
              33.942560526315795
            ],
            [
              -6.83671359223301,
              33.94271315789474
            ],
            [
              -6.837092233009709,
              33.94259868421053
            ],
            [
              -6.837218446601942,
              33.9429802631579
            ],
            [
              -6.83797572815534,
              33.94320921052632
            ],
            [
              -6.838228155339806,
              33.943705263157895
            ],
            [
              -6.838985436893204,
              33.943857894736844
            ],
            [
              -6.838985436893204,
              33.94420131578948
            ],
            [
              -6.839679611650485,
              33.94423947368421
            ],
            [
              -6.839995145631068,
              33.94473552631579
            ],
            [
              -6.840563106796116,
              33.94488815789474
            ],
            [
              -6.841320388349515,
              33.94549868421053
            ],
            [
              -6.841320388349515,
              33.945880263157896
            ],
            [
              -6.841888349514563,
              33.94568947368421
            ],
            [
              -6.8432766990291265,
              33.94683421052632
            ],
            [
              -6.843970873786408,
              33.94713947368421
            ],
            [
              -6.844223300970874,
              33.947025000000004
            ],
            [
              -6.844917475728155,
              33.94801710526316
            ],
            [
              -6.846116504854369,
              33.94839868421053
            ],
            [
              -6.846116504854369,
              33.94866578947369
            ],
            [
              -6.8466844660194175,
              33.9487802631579
            ],
            [
              -6.847694174757282,
              33.94969605263158
            ],
            [
              -6.848135922330098,
              33.949810526315794
            ],
            [
              -6.84845145631068,
              33.95030657894737
            ],
            [
              -6.848893203883495,
              33.9502302631579
            ],
            [
              -6.8491456310679615,
              33.95080263157895
            ],
            [
              -6.848893203883495,
              33.95103157894737
            ],
            [
              -6.8485145631067965,
              33.95091710526316
            ],
            [
              -6.848135922330098,
              33.95114605263158
            ],
            [
              -6.848135922330098,
              33.95145131578948
            ],
            [
              -6.847694174757282,
              33.95156578947368
            ],
            [
              -6.847441747572816,
              33.952061842105266
            ],
            [
              -6.846558252427185,
              33.95248157894737
            ],
            [
              -6.843970873786408,
              33.95248157894737
            ],
            [
              -6.846305825242719,
              33.952290789473686
            ],
            [
              -6.843402912621359,
              33.95225263157895
            ],
            [
              -6.84321359223301,
              33.95164210526316
            ],
            [
              -6.842519417475728,
              33.95164210526316
            ],
            [
              -6.842330097087379,
              33.952061842105266
            ],
            [
              -6.840878640776699,
              33.952214473684215
            ],
            [
              -6.841320388349515,
              33.95236710526316
            ],
            [
              -6.8405000000000005,
              33.95225263157895
            ],
            [
              -6.840247572815534,
              33.95255789473684
            ],
            [
              -6.839300970873786,
              33.95248157894737
            ],
            [
              -6.839174757281554,
              33.95225263157895
            ],
            [
              -6.839111650485437,
              33.95278684210526
            ],
            [
              -6.839553398058253,
              33.952901315789475
            ],
            [
              -6.840121359223301,
              33.95400789473685
            ],
            [
              -6.840878640776699,
              33.954275
            ],
            [
              -6.839300970873786,
              33.95442763157895
            ],
            [
              -6.8392378640776705,
              33.954618421052636
            ],
            [
              -6.838606796116505,
              33.95473289473684
            ],
            [
              -6.838543689320389,
              33.95492368421053
            ],
            [
              -6.838985436893204,
              33.95496184210526
            ],
            [
              -6.839111650485437,
              33.95534342105263
            ],
            [
              -6.838417475728155,
              33.95534342105263
            ],
            [
              -6.838228155339806,
              33.95549605263158
            ],
            [
              -6.838985436893204,
              33.955686842105266
            ],
            [
              -6.8392378640776705,
              33.95599210526316
            ],
            [
              -6.839553398058253,
              33.95793815789474
            ],
            [
              -6.840121359223301,
              33.95896842105263
            ],
            [
              -6.838291262135923,
              33.959159210526316
            ],
            [
              -6.83797572815534,
              33.959388157894736
            ],
            [
              -6.836398058252428,
              33.959464473684214
            ],
            [
              -6.833305825242719,
              33.96018947368421
            ],
            [
              -6.8321699029126215,
              33.96018947368421
            ],
            [
              -6.830781553398058,
              33.96083815789474
            ],
            [
              -6.830781553398058,
              33.96083815789474
            ]
          ]
        ]
      },
      "properties": {
        "zoneId": "souissi-zone-2",
        "hueRange": "0-10°/350-360°",
        "pixelCount": 25869,
        "bboxPx": {
          "minX": 252,
          "minY": 707,
          "maxX": 611,
          "maxY": 1274,
          "w": 360,
          "h": 568
        },
        "centroidPx": [
          463.85612122617806,
          984.4878425915188
        ],
        "contourVertices": 111,
        "_note": "PoC géoréférencement approximatif depuis bbox Souissi — précision ~200m, à raffiner via GCPs précis"
      }
    },
    {
      "type": "Feature",
      "geometry": {
        "type": "Polygon",
        "coordinates": [
          [
            [
              -6.857917475728156,
              33.97865789473684
            ],
            [
              -6.85476213592233,
              33.97865789473684
            ],
            [
              -6.854888349514564,
              33.97827631578947
            ],
            [
              -6.855645631067961,
              33.97804736842105
            ],
            [
              -6.855645631067961,
              33.97766578947368
            ],
            [
              -6.8553300970873785,
              33.97762763157895
            ],
            [
              -6.855203883495146,
              33.97736052631579
            ],
            [
              -6.855582524271845,
              33.97724605263158
            ],
            [
              -6.855708737864078,
              33.97766578947368
            ],
            [
              -6.856655339805825,
              33.976826315789474
            ],
            [
              -6.857223300970874,
              33.97671184210527
            ],
            [
              -6.857097087378641,
              33.976444736842105
            ],
            [
              -6.857538834951456,
              33.97629210526316
            ],
            [
              -6.857538834951456,
              33.976025
            ],
            [
              -6.857917475728156,
              33.976025
            ],
            [
              -6.857917475728156,
              33.97865789473684
            ],
            [
              -6.857917475728156,
              33.97865789473684
            ]
          ]
        ]
      },
      "properties": {
        "zoneId": "souissi-zone-3",
        "hueRange": "210-220°/220-230°/200-210°/190-200°",
        "pixelCount": 7165,
        "bboxPx": {
          "minX": 113,
          "minY": 240,
          "maxX": 246,
          "maxY": 412,
          "w": 134,
          "h": 173
        },
        "centroidPx": [
          178.16217725052337,
          306.8513607815771
        ],
        "contourVertices": 16,
        "_note": "PoC géoréférencement approximatif depuis bbox Souissi — précision ~200m, à raffiner via GCPs précis"
      }
    },
    {
      "type": "Feature",
      "geometry": {
        "type": "Polygon",
        "coordinates": [
          [
            [
              -6.826553398058253,
              33.95278684210526
            ],
            [
              -6.826742718446602,
              33.952977631578946
            ],
            [
              -6.826427184466019,
              33.95255789473684
            ],
            [
              -6.825354368932039,
              33.95225263157895
            ],
            [
              -6.825291262135923,
              33.951832894736846
            ],
            [
              -6.8238398058252425,
              33.95133684210526
            ],
            [
              -6.823587378640777,
              33.95065
            ],
            [
              -6.823145631067962,
              33.95061184210527
            ],
            [
              -6.823019417475728,
              33.950115789473685
            ],
            [
              -6.8222621359223306,
              33.94939078947369
            ],
            [
              -6.822388349514563,
              33.948589473684216
            ],
            [
              -6.821946601941748,
              33.9480552631579
            ],
            [
              -6.822640776699029,
              33.94786447368421
            ],
            [
              -6.823145631067962,
              33.94828421052632
            ],
            [
              -6.824092233009709,
              33.948169736842104
            ],
            [
              -6.824092233009709,
              33.94836052631579
            ],
            [
              -6.823019417475728,
              33.94836052631579
            ],
            [
              -6.822956310679611,
              33.94813157894737
            ],
            [
              -6.822514563106796,
              33.94828421052632
            ],
            [
              -6.823019417475728,
              33.949200000000005
            ],
            [
              -6.823271844660194,
              33.949047368421056
            ],
            [
              -6.823019417475728,
              33.9487802631579
            ],
            [
              -6.825291262135923,
              33.94870394736842
            ],
            [
              -6.82497572815534,
              33.94889473684211
            ],
            [
              -6.825291262135923,
              33.94939078947369
            ],
            [
              -6.824912621359223,
              33.94939078947369
            ],
            [
              -6.824849514563107,
              33.94885657894737
            ],
            [
              -6.823650485436893,
              33.94900921052632
            ],
            [
              -6.823650485436893,
              33.949886842105265
            ],
            [
              -6.824533980582524,
              33.950115789473685
            ],
            [
              -6.824597087378641,
              33.95106973684211
            ],
            [
              -6.825291262135923,
              33.95065
            ],
            [
              -6.825291262135923,
              33.95103157894737
            ],
            [
              -6.824849514563107,
              33.95126052631579
            ],
            [
              -6.825101941747573,
              33.95164210526316
            ],
            [
              -6.825354368932039,
              33.95148947368421
            ],
            [
              -6.825859223300971,
              33.95156578947368
            ],
            [
              -6.826427184466019,
              33.95198552631579
            ],
            [
              -6.8269320388349515,
              33.95133684210526
            ],
            [
              -6.827247572815534,
              33.94946710526316
            ],
            [
              -6.827058252427185,
              33.94839868421053
            ],
            [
              -6.827563106796116,
              33.947978947368426
            ],
            [
              -6.827878640776699,
              33.948475
            ],
            [
              -6.827878640776699,
              33.949276315789476
            ],
            [
              -6.827563106796116,
              33.949734210526316
            ],
            [
              -6.827752427184466,
              33.95133684210526
            ],
            [
              -6.827184466019418,
              33.95156578947368
            ],
            [
              -6.827436893203884,
              33.95248157894737
            ],
            [
              -6.826616504854369,
              33.95255789473684
            ],
            [
              -6.826553398058253,
              33.95278684210526
            ],
            [
              -6.826553398058253,
              33.95278684210526
            ]
          ]
        ]
      },
      "properties": {
        "zoneId": "souissi-zone-4",
        "hueRange": "330-340°",
        "pixelCount": 3279,
        "bboxPx": {
          "minX": 589,
          "minY": 918,
          "maxX": 678,
          "maxY": 1044,
          "w": 90,
          "h": 127
        },
        "centroidPx": [
          627.2156145166209,
          980.6495882891126
        ],
        "contourVertices": 50,
        "_note": "PoC géoréférencement approximatif depuis bbox Souissi — précision ~200m, à raffiner via GCPs précis"
      }
    },
    {
      "type": "Feature",
      "geometry": {
        "type": "Polygon",
        "coordinates": [
          [
            [
              -6.818728155339806,
              33.96988157894737
            ],
            [
              -6.817529126213592,
              33.97026315789474
            ],
            [
              -6.816014563106796,
              33.97026315789474
            ],
            [
              -6.81847572815534,
              33.969576315789475
            ],
            [
              -6.8186019417475725,
              33.969118421052634
            ],
            [
              -6.817718446601941,
              33.9690802631579
            ],
            [
              -6.816519417475728,
              33.96988157894737
            ],
            [
              -6.816014563106796,
              33.969805263157895
            ],
            [
              -6.816014563106796,
              33.969500000000004
            ],
            [
              -6.815635922330097,
              33.96938552631579
            ],
            [
              -6.814689320388349,
              33.96938552631579
            ],
            [
              -6.814373786407767,
              33.969576315789475
            ],
            [
              -6.814247572815534,
              33.96927105263158
            ],
            [
              -6.813427184466019,
              33.969728947368424
            ],
            [
              -6.814058252427184,
              33.96984342105263
            ],
            [
              -6.813868932038835,
              33.97011052631579
            ],
            [
              -6.813427184466019,
              33.97014868421053
            ],
            [
              -6.813742718446602,
              33.97026315789474
            ],
            [
              -6.8130485436893204,
              33.970186842105264
            ],
            [
              -6.813490291262136,
              33.96999605263158
            ],
            [
              -6.813427184466019,
              33.969805263157895
            ],
            [
              -6.81323786407767,
              33.96988157894737
            ],
            [
              -6.813364077669903,
              33.96961447368421
            ],
            [
              -6.813679611650485,
              33.969576315789475
            ],
            [
              -6.813427184466019,
              33.96938552631579
            ],
            [
              -6.81323786407767,
              33.96946184210527
            ],
            [
              -6.813364077669903,
              33.969194736842105
            ],
            [
              -6.813616504854369,
              33.969423684210525
            ],
            [
              -6.813932038834952,
              33.968889473684214
            ],
            [
              -6.814373786407767,
              33.968775
            ],
            [
              -6.814689320388349,
              33.96808815789474
            ],
            [
              -6.815635922330097,
              33.96797368421053
            ],
            [
              -6.816014563106796,
              33.967668421052636
            ],
            [
              -6.817466019417476,
              33.96736315789474
            ],
            [
              -6.817844660194175,
              33.96736315789474
            ],
            [
              -6.818097087378641,
              33.967668421052636
            ],
            [
              -6.818160194174757,
              33.96724868421053
            ],
            [
              -6.819106796116505,
              33.96724868421053
            ],
            [
              -6.818854368932039,
              33.968050000000005
            ],
            [
              -6.8182864077669905,
              33.96824078947368
            ],
            [
              -6.817718446601941,
              33.968126315789476
            ],
            [
              -6.817844660194175,
              33.968355263157896
            ],
            [
              -6.817402912621359,
              33.96854605263158
            ],
            [
              -6.816519417475728,
              33.96885131578948
            ],
            [
              -6.816014563106796,
              33.968775
            ],
            [
              -6.81595145631068,
              33.96938552631579
            ],
            [
              -6.816393203883496,
              33.969423684210525
            ],
            [
              -6.816708737864078,
              33.96900394736842
            ],
            [
              -6.8176553398058255,
              33.969118421052634
            ],
            [
              -6.817907766990292,
              33.968813157894736
            ],
            [
              -6.818728155339806,
              33.968813157894736
            ],
            [
              -6.818917475728155,
              33.969194736842105
            ],
            [
              -6.81954854368932,
              33.968889473684214
            ],
            [
              -6.819422330097088,
              33.96946184210527
            ],
            [
              -6.818917475728155,
              33.969576315789475
            ],
            [
              -6.818728155339806,
              33.96988157894737
            ],
            [
              -6.818728155339806,
              33.96988157894737
            ]
          ]
        ]
      },
      "properties": {
        "zoneId": "souissi-zone-5",
        "hueRange": "210-220°/220-230°/200-210°/190-200°",
        "pixelCount": 2723,
        "bboxPx": {
          "minX": 728,
          "minY": 470,
          "maxX": 817,
          "maxY": 539,
          "w": 90,
          "h": 70
        },
        "centroidPx": [
          772.2379728240911,
          506.6459786999633
        ],
        "contourVertices": 56,
        "_note": "PoC géoréférencement approximatif depuis bbox Souissi — précision ~200m, à raffiner via GCPs précis"
      }
    }
  ]
}